{
  "type": "FeatureCollection",
  "features": [
    {
      "type": "Feature",
      "properties": {
        "norad_id": 34765,
        "name": "IRIDIUM 33 DEB",
        "group": "iridium-33-debris",
        "lat": -24.844820012145277,
        "lon": 31.205176411654545,
        "alt_km": 768.4840999286534,
        "timestamp": "2025-12-12T09:49:09.117230+00:00",
        "meta_object_name": "IRIDIUM 33 DEB",
        "meta_object_id": "1997-051LJ",
        "meta_epoch": "2025-12-11T14:38:05.129376",
        "meta_mean_motion": 14.40460694,
        "meta_eccentricity": 0.00153204,
        "meta_inclination": 86.3396,
        "meta_ra_of_asc_node": 33.2465,
        "meta_arg_of_pericenter": 215.3687,
        "meta_mean_anomaly": 297.1612,
        "meta_ephemeris_type": 0,
        "meta_classification_type": "U",
        "meta_norad_cat_id": 34765,
        "meta_element_set_no": 999,
        "meta_rev_at_epoch": 87597,
        "meta_bstar": 0.00062745119,
        "meta_mean_motion_dot": 2.016e-05,
        "meta_mean_motion_ddot": 0,
        "tle_line1": "1 34765U 97051LJ  25345.60978159  .00002016  00000+0  62745-3 0  9996",
        "tle_line2": "2 34765  86.3396  33.2465 0015320 215.3687 297.1612 14.40460694875970"
      },
      "geometry": {
        "type": "Point",
        "coordinates": [
          31.205176411654545,
          -24.844820012145277
        ]
      }
    },
    {
      "type": "Feature",
      "properties": {
        "norad_id": 34833,
        "name": "IRIDIUM 33 DEB",
        "group": "iridium-33-debris",
        "lat": 65.98586402478267,
        "lon": 59.276527104215326,
        "alt_km": 698.6046151477785,
        "timestamp": "2025-12-12T09:49:09.117240+00:00",
        "meta_object_name": "IRIDIUM 33 DEB",
        "meta_object_id": "1997-051MH",
        "meta_epoch": "2025-12-12T04:48:08.627040",
        "meta_mean_motion": 14.52373802,
        "meta_eccentricity": 0.002181,
        "meta_inclination": 86.3925,
        "meta_ra_of_asc_node": 51.226,
        "meta_arg_of_pericenter": 100.2629,
        "meta_mean_anomaly": 313.9215,
        "meta_ephemeris_type": 0,
        "meta_classification_type": "U",
        "meta_norad_cat_id": 34833,
        "meta_element_set_no": 999,
        "meta_rev_at_epoch": 87707,
        "meta_bstar": 0.0012458,
        "meta_mean_motion_dot": 5.107e-05,
        "meta_mean_motion_ddot": 0,
        "tle_line1": "1 34833U 97051MH  25346.20009985  .00005107  00000+0  12458-2 0  9990",
        "tle_line2": "2 34833  86.3925  51.2260 0021810 100.2629 313.9215 14.52373802877072"
      },
      "geometry": {
        "type": "Point",
        "coordinates": [
          59.276527104215326,
          65.98586402478267
        ]
      }
    },
    {
      "type": "Feature",
      "properties": {
        "norad_id": 34870,
        "name": "IRIDIUM 33 DEB",
        "group": "iridium-33-debris",
        "lat": 9.725438801933166,
        "lon": -45.13093373892972,
        "alt_km": 653.6206757144182,
        "timestamp": "2025-12-12T09:49:09.117251+00:00",
        "meta_object_name": "IRIDIUM 33 DEB",
        "meta_object_id": "1997-051MQ",
        "meta_epoch": "2025-12-11T22:40:34.202784",
        "meta_mean_motion": 14.76406181,
        "meta_eccentricity": 0.0016076,
        "meta_inclination": 86.3105,
        "meta_ra_of_asc_node": 314.448,
        "meta_arg_of_pericenter": 185.3873,
        "meta_mean_anomaly": 238.3569,
        "meta_ephemeris_type": 0,
        "meta_classification_type": "U",
        "meta_norad_cat_id": 34870,
        "meta_element_set_no": 999,
        "meta_rev_at_epoch": 88899,
        "meta_bstar": 0.0023141,
        "meta_mean_motion_dot": 0.00016159,
        "meta_mean_motion_ddot": 0,
        "tle_line1": "1 34870U 97051MQ  25345.94484031  .00016159  00000+0  23141-2 0  9990",
        "tle_line2": "2 34870  86.3105 314.4480 0016076 185.3873 238.3569 14.76406181888992"
      },
      "geometry": {
        "type": "Point",
        "coordinates": [
          -45.13093373892972,
          9.725438801933166
        ]
      }
    },
    {
      "type": "Feature",
      "properties": {
        "norad_id": 34896,
        "name": "IRIDIUM 33 DEB",
        "group": "iridium-33-debris",
        "lat": -43.1071176144132,
        "lon": 150.2787528818859,
        "alt_km": 662.7894662182853,
        "timestamp": "2025-12-12T09:49:09.117261+00:00",
        "meta_object_name": "IRIDIUM 33 DEB",
        "meta_object_id": "1997-051MY",
        "meta_epoch": "2025-12-11T06:54:08.257248",
        "meta_mean_motion": 14.66256347,
        "meta_eccentricity": 0.00241983,
        "meta_inclination": 86.3294,
        "meta_ra_of_asc_node": 327.3367,
        "meta_arg_of_pericenter": 219.9786,
        "meta_mean_anomaly": 206.8534,
        "meta_ephemeris_type": 0,
        "meta_classification_type": "U",
        "meta_norad_cat_id": 34896,
        "meta_element_set_no": 999,
        "meta_rev_at_epoch": 87598,
        "meta_bstar": 0.0017967326,
        "meta_mean_motion_dot": 9.969e-05,
        "meta_mean_motion_ddot": 0,
        "tle_line1": "1 34896U 97051MY  25345.28759557  .00009969  00000+0  17967-2 0  9993",
        "tle_line2": "2 34896  86.3294 327.3367 0024198 219.9786 206.8534 14.66256347875980"
      },
      "geometry": {
        "type": "Point",
        "coordinates": [
          150.2787528818859,
          -43.1071176144132
        ]
      }
    },
    {
      "type": "Feature",
      "properties": {
        "norad_id": 34926,
        "name": "IRIDIUM 33 DEB",
        "group": "iridium-33-debris",
        "lat": -35.85305288607354,
        "lon": 5.6246472951871125,
        "alt_km": 671.4237025223883,
        "timestamp": "2025-12-12T09:49:09.117272+00:00",
        "meta_object_name": "IRIDIUM 33 DEB",
        "meta_object_id": "1997-051NF",
        "meta_epoch": "2025-12-11T19:22:10.619040",
        "meta_mean_motion": 14.54346009,
        "meta_eccentricity": 0.00754631,
        "meta_inclination": 86.1327,
        "meta_ra_of_asc_node": 8.7055,
        "meta_arg_of_pericenter": 295.9766,
        "meta_mean_anomaly": 117.5242,
        "meta_ephemeris_type": 0,
        "meta_classification_type": "U",
        "meta_norad_cat_id": 34926,
        "meta_element_set_no": 999,
        "meta_rev_at_epoch": 86443,
        "meta_bstar": 0.0073698942,
        "meta_mean_motion_dot": 0.00032638,
        "meta_mean_motion_ddot": 0,
        "tle_line1": "1 34926U 97051NF  25345.80706735  .00032638  00000+0  73699-2 0  9998",
        "tle_line2": "2 34926  86.1327   8.7055 0075463 295.9766 117.5242 14.54346009864430"
      },
      "geometry": {
        "type": "Point",
        "coordinates": [
          5.6246472951871125,
          -35.85305288607354
        ]
      }
    },
    {
      "type": "Feature",
      "properties": {
        "norad_id": 34985,
        "name": "IRIDIUM 33 DEB",
        "group": "iridium-33-debris",
        "lat": 76.22387694721102,
        "lon": -137.98725341265552,
        "alt_km": 751.6450386708675,
        "timestamp": "2025-12-12T09:49:09.117282+00:00",
        "meta_object_name": "IRIDIUM 33 DEB",
        "meta_object_id": "1997-051NR",
        "meta_epoch": "2025-12-12T04:28:48.219744",
        "meta_mean_motion": 14.42006699,
        "meta_eccentricity": 0.0020709,
        "meta_inclination": 86.3696,
        "meta_ra_of_asc_node": 57.1151,
        "meta_arg_of_pericenter": 221.9104,
        "meta_mean_anomaly": 167.4455,
        "meta_ephemeris_type": 0,
        "meta_classification_type": "U",
        "meta_norad_cat_id": 34985,
        "meta_element_set_no": 999,
        "meta_rev_at_epoch": 87167,
        "meta_bstar": 0.0010803,
        "meta_mean_motion_dot": 3.571e-05,
        "meta_mean_motion_ddot": 0,
        "tle_line1": "1 34985U 97051NR  25346.18666921  .00003571  00000+0  10803-2 0  9999",
        "tle_line2": "2 34985  86.3696  57.1151 0020709 221.9104 167.4455 14.42006699871678"
      },
      "geometry": {
        "type": "Point",
        "coordinates": [
          -137.98725341265552,
          76.22387694721102
        ]
      }
    },
    {
      "type": "Feature",
      "properties": {
        "norad_id": 35051,
        "name": "IRIDIUM 33 DEB",
        "group": "iridium-33-debris",
        "lat": 29.315656189422036,
        "lon": 11.074766887481372,
        "alt_km": 728.6009543919363,
        "timestamp": "2025-12-12T09:49:09.117293+00:00",
        "meta_object_name": "IRIDIUM 33 DEB",
        "meta_object_id": "1997-051NX",
        "meta_epoch": "2025-12-11T08:47:57.045408",
        "meta_mean_motion": 14.47588957,
        "meta_eccentricity": 0.00106566,
        "meta_inclination": 86.3243,
        "meta_ra_of_asc_node": 9.4603,
        "meta_arg_of_pericenter": 94.8899,
        "meta_mean_anomaly": 265.3522,
        "meta_ephemeris_type": 0,
        "meta_classification_type": "U",
        "meta_norad_cat_id": 35051,
        "meta_element_set_no": 999,
        "meta_rev_at_epoch": 86976,
        "meta_bstar": 0.001042299,
        "meta_mean_motion_dot": 3.858e-05,
        "meta_mean_motion_ddot": 0,
        "tle_line1": "1 35051U 97051NX  25345.36663247  .00003858  00000+0  10423-2 0  9997",
        "tle_line2": "2 35051  86.3243   9.4603 0010656  94.8899 265.3522 14.47588957869768"
      },
      "geometry": {
        "type": "Point",
        "coordinates": [
          11.074766887481372,
          29.315656189422036
        ]
      }
    }
  ]
}